[{"OBJECT_NAME":"STARLINK-2635","OBJECT_ID":"2021-038C","EPOCH":"2026-03-09T04:23:02.281056","MEAN_MOTION":15.30190803,"ECCENTRICITY":0.00011052,"INCLINATION":53.1597,"RA_OF_ASC_NODE":0.4872,"ARG_OF_PERICENTER":106.6604,"MEAN_ANOMALY":253.4518,"EPHEMERIS_TYPE":0,"CLASSIFICATION_TYPE":"U","NORAD_CAT_ID":48355,"ELEMENT_SET_NO":999,"REV_AT_EPOCH":26700,"BSTAR":-0.00012431176,"MEAN_MOTION_DOT":-4.038e-5,"MEAN_MOTION_DDOT":0},{"OBJECT_NAME":"YAOGAN-36 04C","OBJECT_ID":"2022-171E","EPOCH":"2026-03-09T18:55:44.889600","MEAN_MOTION":15.29852307,"ECCENTRICITY":0.00066848,"INCLINATION":34.9797,"RA_OF_ASC_NODE":96.6578,"ARG_OF_PERICENTER":275.3761,"MEAN_ANOMALY":84.6192,"EPHEMERIS_TYPE":0,"CLASSIFICATION_TYPE":"U","NORAD_CAT_ID":54750,"ELEMENT_SET_NO":999,"REV_AT_EPOCH":18024,"BSTAR":0.00054591902,"MEAN_MOTION_DOT":0.00016196,"MEAN_MOTION_DDOT":0}]
